*******************************************************************************
JPL/HORIZONS               489 Comacina (A902 RD)          2020-Jun-22 09:10:22
Rec #:     489 (+COV) Soln.date: 2020-Feb-22_15:28:33   # obs: 2790 (1902-2019)
 
IAU76/J2000 helio. ecliptic osc. elements (au, days, deg., period=Julian yrs):
 
  EPOCH=  2455204.5 ! 2010-Jan-08.00 (TDB)         Residual RMS= .28144
   EC= .0430572066626245   QR= 3.014665768456841   TP= 2455998.2371983929
   OM= 166.9219014312475   W=  12.36520131931356   IN= 13.0002573649758
   A= 3.150309286454915    MA= 220.0892715648671   ADIST= 3.28595280445299
   PER= 5.59162            N= .176268323           ANGMOM= .03050388
   DAN= 3.01756            DDN= 3.28253            L= 178.979562
   B= 2.7611456            MOID= 2.02023005        TP= 2012-Mar-11.7371983929
 
Asteroid physical parameters (km, seconds, rotational period in hours):
   GM= n.a.                RAD= 69.695             ROTPER= 9.02
   H= 8.4                  G= .150                 B-V= .697
                           ALBEDO= .0427           STYP= C
 
ASTEROID comments: 
1: soln ref.= JPL#108, OCC=0
2: source=ORB
*******************************************************************************
 
 
*******************************************************************************
Ephemeris / WWW_USER Mon Jun 22 09:10:23 2020 Pasadena, USA      / Horizons
*******************************************************************************
Target body name: 489 Comacina (A902 RD)          {source: JPL#108}
Center body name: Solar System Barycenter (0)     {source: DE431}
Center-site name: BODY CENTER
*******************************************************************************
Start time      : A.D. 1969-Jun-28 00:00:00.0000 TDB
Stop  time      : A.D. 2071-May-04 00:00:00.0000 TDB
Step-size       : 7200 minutes
*******************************************************************************
Center geodetic : 0.00000000,0.00000000,0.0000000 {E-lon(deg),Lat(deg),Alt(km)}
Center cylindric: 0.00000000,0.00000000,0.0000000 {E-lon(deg),Dxy(km),Dz(km)}
Center radii    : (undefined)                                                  
Small perturbers: Yes                             {source: SB431-N16}
Output units    : AU-D
Output type     : GEOMETRIC cartesian states
Output format   : 2 (position and velocity)
Reference frame : Ecliptic of J2000.0
*******************************************************************************
Initial IAU76/J2000 heliocentric ecliptic osculating elements (au, days, deg.):
  EPOCH=  2455204.5 ! 2010-Jan-08.00 (TDB)         Residual RMS= .28144        
   EC= .0430572066626245   QR= 3.014665768456841   TP= 2455998.2371983929      
   OM= 166.9219014312475   W=  12.36520131931356   IN= 13.0002573649758        
  Equivalent ICRF heliocentric equatorial cartesian coordinates (au, au/d):
   X= 2.609191229459633E+00  Y= 1.934467232482670E+00  Z= 2.324320844461448E-01
  VX=-5.786028386392239E-03 VY= 7.180504051205817E-03 VZ= 1.665424437235271E-03
Asteroid physical parameters (km, seconds, rotational period in hours):        
   GM= n.a.                RAD= 69.695             ROTPER= 9.02                
   H= 8.4                  G= .150                 B-V= .697                   
                           ALBEDO= .0427           STYP= C                     
*******************************************************************************
            JDTDB,            Calendar Date (TDB),        delta-T,                      X,                      Y,                      Z,                     VX,                     VY,                     VZ,
******************************************************************************************************************************************************************************************************************
$$SOE
2470080.500000000, A.D. 2050-Oct-01 00:00:00.0000,      69.182370, -2.220136551756800E+00,  1.993350380483581E+00, -3.269365405793654E-01, -6.659315098332326E-03, -7.390545670845083E-03,  2.020374880942428E-03,
2470085.500000000, A.D. 2050-Oct-06 00:00:00.0000,      69.182364, -2.253128982225368E+00,  1.956127501663129E+00, -3.167904291013957E-01, -6.537336445479513E-03, -7.498284853548204E-03,  2.037980193395876E-03,
2470090.500000000, A.D. 2050-Oct-11 00:00:00.0000,      69.182370, -2.285506738552653E+00,  1.918370773087570E+00, -3.065576392886032E-01, -6.413451226713748E-03, -7.604079373820853E-03,  2.055045126346449E-03,
2470095.500000000, A.D. 2050-Oct-16 00:00:00.0000,      69.182390, -2.317260375415381E+00,  1.880090010517681E+00, -2.962408892047737E-01, -6.287694590659390E-03, -7.707892360495286E-03,  2.071563245769736E-03,
2470100.500000000, A.D. 2050-Oct-21 00:00:00.0000,      69.182422, -2.348380625413123E+00,  1.841295212425808E+00, -2.858429285925039E-01, -6.160102555419467E-03, -7.809687604106275E-03,  2.087528314971498E-03,
2470105.500000000, A.D. 2050-Oct-26 00:00:00.0000,      69.182465, -2.378858403378744E+00,  1.801996556627761E+00, -2.753665378745676E-01, -6.030711993640488E-03, -7.909429580661841E-03,  2.102934299359867E-03,
2470110.500000000, A.D. 2050-Oct-31 00:00:00.0000,      69.182517, -2.408684810611861E+00,  1.762204396796839E+00, -2.648145271317489E-01, -5.899560616663669E-03, -8.007083475022889E-03,  2.117775371083634E-03,
2470115.500000000, A.D. 2050-Nov-05 00:00:00.0000,      69.182582, -2.437851139030895E+00,  1.721929258861978E+00, -2.541897350578577E-01, -5.766686957813981E-03, -8.102615203862240E-03,  2.132045913516956E-03,
2470120.500000000, A.D. 2050-Nov-10 00:00:00.0000,      69.182658, -2.466348875239488E+00,  1.681181837292248E+00, -2.434950278927454E-01, -5.632130354863488E-03, -8.195991438161502E-03,  2.145740525573761E-03,
2470125.500000000, A.D. 2050-Nov-15 00:00:00.0000,      69.182746, -2.494169704503218E+00,  1.639972991270114E+00, -2.327332983341963E-01, -5.495930931695180E-03, -8.287179625204319E-03,  2.158854025839284E-03,
2470130.500000000, A.D. 2050-Nov-20 00:00:00.0000,      69.182844, -2.521305514632700E+00,  1.598313740756050E+00, -2.219074644296435E-01, -5.358129579190352E-03, -8.376148010030815E-03,  2.171381456509369E-03,
2470135.500000000, A.D. 2050-Nov-25 00:00:00.0000,      69.182948, -2.547748399769211E+00,  1.556215262447311E+00, -2.110204684486792E-01, -5.218767935359074E-03, -8.462865656320560E-03,  2.183318087130659E-03,
2470140.500000000, A.D. 2050-Nov-30 00:00:00.0000,      69.183060, -2.573490664069110E+00,  1.513688885633768E+00, -2.000752757373745E-01, -5.077888364727663E-03, -8.547302466677903E-03,  2.194659418137541E-03,
2470145.500000000, A.D. 2050-Dec-05 00:00:00.0000,      69.183180, -2.598524825283365E+00,  1.470746087953841E+00, -1.890748735554256E-01, -4.935533936996900E-03, -8.629429202307571E-03,  2.205401184183525E-03,
2470150.500000000, A.D. 2050-Dec-10 00:00:00.0000,      69.183307, -2.622843618228646E+00,  1.427398491053580E+00, -1.780222698971722E-01, -4.791748405028560E-03, -8.709217502077236E-03,  2.215539357257913E-03,
2470155.500000000, A.D. 2050-Dec-15 00:00:00.0000,      69.183441, -2.646439998147013E+00,  1.383657856152076E+00, -1.669204922976341E-01, -4.646576182340624E-03, -8.786639900896428E-03,  2.225070149553505E-03,
2470160.500000000, A.D. 2050-Dec-20 00:00:00.0000,      69.183579, -2.669307143952281E+00,  1.339536079517246E+00, -1.557725866249269E-01, -4.500062320271514E-03, -8.861669847130507E-03,  2.233990016046987E-03,
2470165.500000000, A.D. 2050-Dec-25 00:00:00.0000,      69.183718, -2.691438461360686E+00,  1.295045187857489E+00, -1.445816158603740E-01, -4.352252484427615E-03, -8.934281718837691E-03,  2.242295656862633E-03,
2470170.500000000, A.D. 2050-Dec-30 00:00:00.0000,      69.183859, -2.712827585900615E+00,  1.250197333634501E+00, -1.333506588670388E-01, -4.203192929796500E-03, -9.004450839173034E-03,  2.249984019557311E-03,
2470175.500000000, A.D. 2051-Jan-04 00:00:00.0000,      69.184002, -2.733468385794651E+00,  1.205004790299983E+00, -1.220828091470018E-01, -4.052930474653222E-03, -9.072153491473185E-03,  2.257052301319845E-03,
2470180.500000000, A.D. 2051-Jan-09 00:00:00.0000,      69.184146, -2.753354964709419E+00,  1.159479947457705E+00, -1.107811735881207E-01, -3.901512473858774E-03, -9.137366933981643E-03,  2.263497950960078E-03,
2470185.500000000, A.D. 2051-Jan-14 00:00:00.0000,      69.184290, -2.772481664370982E+00,  1.113635305953422E+00, -9.944887120149978E-02, -3.748986791780126E-03, -9.200069413953758E-03,  2.269318670636129E-03,
2470190.500000000, A.D. 2051-Jan-19 00:00:00.0000,      69.184432, -2.790843067043850E+00,  1.067483472895994E+00, -8.808903185095285E-02, -3.595401774821173E-03, -9.260240181071550E-03,  2.274512417332216E-03,
2470195.500000000, A.D. 2051-Jan-24 00:00:00.0000,      69.184568, -2.808433997871811E+00,  1.021037156613130E+00, -7.670479497569098E-02, -3.440806223643119E-03, -9.317859500175902E-03,  2.279077404088794E-03,
2470200.500000000, A.D. 2051-Jan-29 00:00:00.0000,      69.184699, -2.825249527079415E+00,  9.743091615453235E-01, -6.529930830750674E-02, -3.285249365223494E-03, -9.372908663237567E-03,  2.283012100972340E-03,
2470205.500000000, A.D. 2051-Feb-03 00:00:00.0000,      69.184826, -2.841284972033538E+00,  9.273123830821218E-01, -5.387572658376852E-02, -3.128780824840483E-03, -9.425370000424108E-03,  2.286315235782506E-03,
2470210.500000000, A.D. 2051-Feb-08 00:00:00.0000,      69.184948, -2.856535899164681E+00,  8.800598023456223E-01, -4.243721025751050E-02, -2.971450597972399E-03, -9.475226890129657E-03,  2.288985794510262E-03,
2470215.500000000, A.D. 2051-Feb-13 00:00:00.0000,      69.185063, -2.870998125747380E+00,  8.325644809265451E-01, -3.098692420580312E-02, -2.813309022022361E-03, -9.522463767907250E-03,  2.291023021571663E-03,
